{"type":"FeatureCollection","features":[{"type":"Feature","properties":{"loc_id":5027280,"name":"Kalod Kartal","name_hi":"कैलोदकर्ताल","lgd_code":"476255","polygons":1535},"geometry":{"type":"MultiLineString","coordinates":[[[75.8466498,22.6317875],[75.8466513,22.6318466],[75.8466724,22.6319066],[75.8467148,22.6319505],[75.8471872,22.6324413],[75.8473241,22.6325805],[75.847352,22.6325953],[75.8476967,22.6326176],[75.8478849,22.632633],[75.8482487,22.6326543],[75.8482644,22.6326552],[75.8488378,22.6327037],[75.8498381,22.6327773],[75.8501851,22.6328153],[75.8503924,22.6328393],[75.8504694,22.6328663],[75.8508899,22.6331302],[75.8510443,22.6332243],[75.851422,22.6334506],[75.8514905,22.6335499],[75.8514863,22.6336541],[75.85139,22.6344907],[75.8513201,22.6351779],[75.8512667,22.6357212],[75.8512671,22.6357503],[75.8512685,22.6358558],[75.851322,22.6365559],[75.8513557,22.637015],[75.8513655,22.6372501],[75.8513772,22.6375346],[75.8514718,22.6377689],[75.8515322,22.6379496],[75.8516369,22.6382693],[75.8517637,22.6386461],[75.8519227,22.6391048],[75.8519952,22.6393388],[75.8522185,22.6400201],[75.852408,22.6405707],[75.8524465,22.6406353],[75.8519219,22.6413832],[75.851942,22.6417746],[75.8517227,22.6417716],[75.8518702,22.6422215],[75.8519329,22.6423756],[75.8519394,22.6424891],[75.8519461,22.6426226],[75.8519541,22.6427591],[75.8519596,22.6428922],[75.8519758,22.6430284],[75.8519812,22.6431627],[75.8519945,22.6432981],[75.8520029,22.6434361],[75.8520113,22.6435716],[75.8520225,22.6437043],[75.852028,22.6437764],[75.8520207,22.6437994],[75.8520091,22.64384],[75.851978,22.6439599],[75.851936,22.6441127],[75.851924,22.6441594],[75.851921,22.6442472],[75.8519219,22.644383],[75.8519209,22.6445172],[75.8519157,22.6446514],[75.8519154,22.6447833],[75.8519229,22.644916],[75.8519237,22.6449866],[75.8519243,22.645046],[75.8519256,22.6451775],[75.851918,22.6453078],[75.8519107,22.6454382],[75.8519063,22.6455674],[75.8519044,22.645697],[75.851902,22.6458247],[75.8518882,22.6459542],[75.8518756,22.6460876],[75.8518655,22.6462218],[75.8518582,22.6463556],[75.8518506,22.6464875],[75.85184,22.6466212],[75.8518266,22.6467565],[75.8518178,22.6468938],[75.8517978,22.6470245],[75.8517908,22.6470835],[75.8517902,22.6471621],[75.8517858,22.6473013],[75.8517897,22.6474386],[75.851794,22.6475743],[75.8517974,22.6477097],[75.8517769,22.6477633],[75.8517516,22.6478452],[75.8517185,22.6479832],[75.8516854,22.6481168],[75.8516655,22.6482011],[75.8516139,22.6483876],[75.8515865,22.6485194],[75.8515518,22.6486527],[75.8515154,22.6487849],[75.8514782,22.6489193],[75.8514319,22.6490533],[75.8513894,22.6491885],[75.8513465,22.6493369],[75.851343,22.6493487],[75.8514038,22.6494013],[75.8514615,22.649453],[75.8515967,22.6495817],[75.8517327,22.6497099],[75.8517822,22.6497543],[75.8518859,22.6497301],[75.8519715,22.6497056],[75.8521738,22.6496382],[75.8522095,22.649628],[75.8522333,22.6496254],[75.8522694,22.649626],[75.8523105,22.6496304],[75.852322,22.6496373],[75.8523301,22.6496711],[75.85233,22.6497163],[75.8523165,22.6497803],[75.8523421,22.6498084],[75.8523687,22.649853],[75.8523809,22.6498945],[75.8523929,22.649962],[75.8524012,22.6500322],[75.8524199,22.6501654],[75.8524417,22.6502989],[75.8524673,22.6504325],[75.852488,22.6505641],[75.8525269,22.6508266],[75.8525434,22.6509562],[75.8525472,22.6510889],[75.8525412,22.651225],[75.852536,22.6513596],[75.8525442,22.6514037],[75.852562,22.6514885],[75.8525899,22.6515949],[75.8527721,22.6516391],[75.8528502,22.6516498],[75.8530877,22.6516807],[75.8533321,22.651704],[75.8534373,22.6517274],[75.8535663,22.6517291],[75.8537838,22.6517232],[75.854012,22.6517146],[75.8541174,22.6517093],[75.8541565,22.6518931],[75.8541814,22.651983],[75.8542082,22.6521115],[75.854235,22.6522447],[75.8542512,22.6523805],[75.8542698,22.6525152],[75.8542782,22.6526544],[75.8542959,22.6527205],[75.8543095,22.6527819],[75.8543318,22.6529127],[75.8543344,22.653047],[75.8543466,22.6531452],[75.854347,22.6533097],[75.8543308,22.6534446],[75.8543264,22.6535761],[75.8543123,22.6536796],[75.8545256,22.6537104],[75.8545881,22.653721],[75.8547403,22.653704],[75.8549145,22.6536699],[75.8549731,22.6536517],[75.8550804,22.6536204],[75.8552138,22.6535604],[75.855456,22.6534467],[75.855485,22.6534357],[75.8556696,22.6534177],[75.855901,22.6533996],[75.856132,22.6533775],[75.8563503,22.6533666],[75.8564554,22.6533605],[75.8565817,22.6533473],[75.8567508,22.6533377],[75.8568201,22.6533337],[75.8570277,22.6533166],[75.8572454,22.6532769],[75.8574652,22.6532391],[75.8576849,22.653204],[75.8579043,22.6531662],[75.8581212,22.6531295],[75.8582458,22.6531071],[75.8582147,22.6530011],[75.8584336,22.6529679],[75.85866,22.6529325],[75.8587563,22.6529175],[75.8587916,22.652915],[75.8588688,22.6529184],[75.8589559,22.6529211],[75.8590891,22.6528994],[75.8593015,22.6528539],[75.8595153,22.6527919],[75.8597328,22.6527265],[75.859954,22.6526657],[75.8601564,22.652611],[75.8603789,22.6525517],[75.8606039,22.6524944],[75.8606772,22.6524786],[75.8607115,22.6525556],[75.8608926,22.6525379],[75.8610817,22.6525243],[75.8613136,22.6524908],[75.8615282,22.6524935],[75.8617901,22.6524674],[75.8620373,22.6524427],[75.8622698,22.6524195],[75.8625443,22.6523922],[75.8627453,22.6523721],[75.862901,22.6523679],[75.8630137,22.6523577],[75.8632186,22.6523525],[75.863352,22.6523519],[75.8635755,22.6523555],[75.8636469,22.6523504],[75.8638816,22.6523372],[75.8640974,22.6523221],[75.8643133,22.6523172],[75.864556,22.6523089],[75.8647774,22.6522927],[75.8649108,22.6522837],[75.8650003,22.6522875],[75.8652228,22.6522843],[75.8654456,22.6522783],[75.8656677,22.6522739],[75.8658815,22.6522698],[75.8660979,22.6522669],[75.8663146,22.6522636],[75.8664509,22.6522638],[75.8680147,22.6521732],[75.8687874,22.6520554],[75.8689768,22.6520695],[75.869162,22.6521118],[75.8692867,22.6521533],[75.8694096,22.6521907],[75.8696794,22.6522819],[75.8700554,22.6523878],[75.8707363,22.6526169],[75.8714126,22.6528307],[75.8716952,22.6529024],[75.8720888,22.6529966],[75.8724824,22.6531065],[75.8726302,22.6530197],[75.8730153,22.652759],[75.8734026,22.6525031],[75.8736587,22.6523259],[75.8737762,22.6522497],[75.873864,22.6521931],[75.8741823,22.6521496],[75.874587,22.6520819],[75.8748068,22.6520484],[75.8749917,22.6520054],[75.8751651,22.6519721],[75.8754334,22.6519273],[75.8758671,22.6518498],[75.876303,22.6517906],[75.8767534,22.6517288],[75.8768252,22.6517194],[75.8770928,22.6516655],[75.8773502,22.6516165],[75.8774425,22.6516222],[75.8776159,22.6516349],[75.8777884,22.6516483],[75.8779608,22.6516588],[75.8781349,22.651675],[75.8785168,22.6517021],[75.8787217,22.6517169],[75.878819,22.6517225],[75.8790177,22.6517413],[75.8791116,22.6517511],[75.8792604,22.6517905],[75.8794142,22.6518088],[75.8797349,22.6518497],[75.8800474,22.6518876],[75.8800999,22.6518927],[75.8802067,22.6518985],[75.8803579,22.6518494],[75.88047,22.6518629],[75.8806692,22.6518809],[75.8808656,22.6518943],[75.8810565,22.651917],[75.8812543,22.6519419],[75.8812653,22.6518823],[75.8812725,22.6517839],[75.8812906,22.6517609],[75.8814847,22.6517645],[75.8816756,22.6517568],[75.8818761,22.6517508],[75.882078,22.6517438],[75.8822847,22.6517357],[75.8824907,22.6517313],[75.8825603,22.6517292],[75.8826902,22.6517228],[75.8827282,22.6517097],[75.8828887,22.6516924],[75.883093,22.6516772],[75.8831776,22.6516717],[75.8832482,22.6516629],[75.8832973,22.6516498],[75.8834433,22.6516178],[75.8836729,22.6515882],[75.8839768,22.651555],[75.8842569,22.6515294],[75.8845495,22.6515098],[75.8847214,22.6515036],[75.8849367,22.6514838],[75.8849485,22.6513941],[75.8849565,22.6513324],[75.8849983,22.651151],[75.8850323,22.6509666],[75.8850684,22.6507846],[75.88507,22.6507265],[75.8851142,22.6503919],[75.8851631,22.6501266],[75.8852098,22.6498464],[75.8852574,22.6495613],[75.8852765,22.649447],[75.8852909,22.6493607],[75.8853067,22.6492657],[75.8853658,22.6489777],[75.8854131,22.6486986],[75.8854596,22.6484217],[75.8854776,22.6483026],[75.8855021,22.6481412],[75.8855266,22.6480128],[75.8855678,22.6477847],[75.8855793,22.647721],[75.8855935,22.6476425],[75.885612,22.6475144],[75.8856291,22.6473864],[75.8856473,22.6472587],[75.88567,22.6471323],[75.8856892,22.6470033],[75.8857206,22.6468278],[75.8857629,22.6464935],[75.8857899,22.6462291],[75.8857972,22.6461398],[75.8858057,22.6460507],[75.8858174,22.6459615],[75.8858269,22.645874],[75.8858422,22.6457855],[75.8858502,22.645696],[75.8858572,22.6456098],[75.8859,22.6452225],[75.8859229,22.6449985],[75.8859458,22.644808],[75.886008,22.6445212],[75.886049,22.6444104],[75.8860888,22.6443005],[75.8861165,22.6441908],[75.8861572,22.6440845],[75.8861967,22.6439789],[75.886234,22.6438723],[75.8862695,22.6437658],[75.8863033,22.6436609],[75.8863482,22.6435525],[75.8863889,22.6434431],[75.8864351,22.6433226],[75.8865978,22.6428757],[75.886606,22.6428532],[75.8866788,22.6426532],[75.8868871,22.6420813],[75.8871067,22.6414905],[75.8872037,22.6412243],[75.8874143,22.6413],[75.8876686,22.6413905],[75.887923,22.6414756],[75.8879884,22.6415003],[75.8880506,22.641522],[75.8881398,22.6415531],[75.888188,22.6415699],[75.8882258,22.6415847],[75.8882811,22.6416065],[75.8884388,22.6416686],[75.8885215,22.641701],[75.888694,22.641779],[75.8889541,22.6419102],[75.8891925,22.6419063],[75.8894326,22.6418954],[75.8896807,22.6418779],[75.8899533,22.6418611],[75.8900142,22.6418572],[75.8902579,22.641842],[75.8904916,22.6418423],[75.8905303,22.6418395],[75.8905808,22.6417968],[75.8906396,22.6417271],[75.8906563,22.641513],[75.8906556,22.6414691],[75.8906508,22.6413284],[75.8906729,22.6410891],[75.89068,22.6410355],[75.8906904,22.6408446],[75.8906834,22.6406513],[75.8906702,22.6404559],[75.8906565,22.6402605],[75.8906546,22.6400589],[75.8906532,22.6398615],[75.890645,22.6396869],[75.8906397,22.6395239],[75.8906438,22.6394932],[75.8906193,22.6392552],[75.8905983,22.6390146],[75.8905696,22.6387816],[75.8905396,22.6385493],[75.8905253,22.6384482],[75.8905284,22.6382156],[75.8904934,22.6380526],[75.8904553,22.637866],[75.8904133,22.6376732],[75.8903691,22.6374825],[75.8903248,22.6372912],[75.8902999,22.6371002],[75.8902732,22.6369086],[75.8902461,22.6367129],[75.8901826,22.6365219],[75.8901558,22.6364464],[75.8900073,22.6361002],[75.8899123,22.635857],[75.8898174,22.635615],[75.8897367,22.6353732],[75.8896669,22.635134],[75.8895972,22.6348943],[75.8895186,22.634655],[75.8894529,22.6344127],[75.889394,22.6341756],[75.8893276,22.6339321],[75.889199,22.6334444],[75.8891388,22.6332016],[75.8890779,22.6329575],[75.8890312,22.6327858],[75.8889853,22.6326654],[75.8889613,22.6326031],[75.8889982,22.6325021],[75.8889792,22.6324708],[75.8889183,22.6322356],[75.8888533,22.6320009],[75.888789,22.6317644],[75.8887165,22.6315265],[75.8886773,22.6312941],[75.8886355,22.6310578],[75.8885951,22.6307727],[75.8886117,22.6305936],[75.8886155,22.6303635],[75.8886199,22.6301335],[75.8886325,22.6298985],[75.8886021,22.6297415],[75.8885235,22.6295149],[75.8883945,22.6292706],[75.8883185,22.629096],[75.8882541,22.6289167],[75.888183,22.628649],[75.8881661,22.6285648],[75.888111,22.6284698],[75.8879996,22.6282777],[75.8878778,22.6280914],[75.8877484,22.627909],[75.887619,22.6277266],[75.8874955,22.6275423],[75.887372,22.6273581],[75.8872486,22.6271738],[75.8871251,22.6269905],[75.8870027,22.6268052],[75.8869335,22.6266791],[75.8868556,22.6266161],[75.8867791,22.6266182],[75.8866828,22.6266426],[75.8865983,22.6266716],[75.886559,22.6266821],[75.8862553,22.6267701],[75.8859963,22.6268504],[75.8859517,22.6268627],[75.8856535,22.6269507],[75.8853563,22.6270443],[75.8850565,22.6271444],[75.8847539,22.627241],[75.8844417,22.6273284],[75.8841284,22.6274253],[75.8838016,22.627526],[75.8835529,22.6275997],[75.8834899,22.6276064],[75.8831928,22.6276735],[75.8828957,22.6277405],[75.8825275,22.6278127],[75.8822832,22.6278553],[75.8820793,22.6279088],[75.8817655,22.6279972],[75.8814378,22.6280816],[75.8811107,22.6281649],[75.880944,22.6282119],[75.8807964,22.6282451],[75.8806581,22.6282602],[75.8805579,22.6282697],[75.8804613,22.6282686],[75.8801453,22.6282728],[75.8798276,22.6282739],[75.8795053,22.6282716],[75.8791865,22.6282747],[75.8790794,22.6282772],[75.8790487,22.6282823],[75.8790209,22.6282992],[75.8788709,22.6284008],[75.8785505,22.6285919],[75.8782389,22.6287885],[75.8780205,22.6289168],[75.8779852,22.6289298],[75.8779262,22.6289313],[75.8776061,22.6289527],[75.8772977,22.6289759],[75.8769805,22.6289802],[75.8766669,22.6289807],[75.876513,22.6289713],[75.8763574,22.6289452],[75.8762254,22.6289237],[75.8760299,22.628889],[75.875979,22.628883],[75.8758959,22.6289001],[75.8757191,22.628924],[75.87541,22.6289698],[75.8750986,22.6290006],[75.8749298,22.6290167],[75.8748086,22.6290287],[75.8745708,22.6290472],[75.8741773,22.6290899],[75.874042,22.6291038],[75.8737825,22.6291403],[75.8733911,22.6291706],[75.8729977,22.6292074],[75.8726119,22.6292352],[75.8721983,22.6292809],[75.8721033,22.6292916],[75.8720378,22.629299],[75.8717929,22.6293552],[75.8717565,22.6293643],[75.8713987,22.6294536],[75.871376,22.6294593],[75.8709954,22.6295552],[75.8709677,22.6295614],[75.8707386,22.6296125],[75.8706995,22.6296191],[75.870675,22.629663],[75.8706093,22.6297583],[75.8705575,22.6298169],[75.8705251,22.6298421],[75.8705018,22.629846],[75.8704262,22.6298587],[75.8703266,22.6298813],[75.8702258,22.6299018],[75.8701247,22.6299213],[75.8700232,22.629941],[75.8699223,22.6299595],[75.8698243,22.6299839],[75.8697253,22.6300049],[75.8696265,22.6300188],[75.8695264,22.6300357],[75.8694273,22.6300538],[75.8693263,22.6300708],[75.8692238,22.6300842],[75.8691219,22.6301007],[75.8690174,22.6301106],[75.8688186,22.6301499],[75.8687615,22.6301789],[75.8685555,22.6301877],[75.8685382,22.6301885],[75.8684592,22.6301753],[75.8683688,22.630162],[75.8682642,22.6301575],[75.8681592,22.6301492],[75.868024,22.6301124],[75.867871,22.6300933],[75.8678587,22.6301743],[75.8677847,22.6301087],[75.8676915,22.6300429],[75.8676541,22.6300267],[75.8676372,22.6300368],[75.8675272,22.6301132],[75.8674048,22.6302036],[75.86734,22.6302409],[75.867276,22.6302223],[75.8671599,22.6301896],[75.8670357,22.6301545],[75.8669677,22.6301346],[75.866918,22.6301429],[75.8668603,22.6301506],[75.8666215,22.630189],[75.8663813,22.6302206],[75.8663498,22.6302101],[75.8661452,22.6301641],[75.8658726,22.6301156],[75.8657068,22.6301037],[75.8656356,22.6301094],[75.8654,22.6301457],[75.8651666,22.6301757],[75.8650744,22.6301896],[75.8649338,22.6301907],[75.8646675,22.6301901],[75.8645693,22.6301976],[75.8643844,22.6302132],[75.8641296,22.63026],[75.8639365,22.6302895],[75.8636383,22.6303307],[75.8633785,22.63036],[75.8631228,22.6303812],[75.8628606,22.6304067],[75.8627236,22.6304108],[75.8626223,22.6303935],[75.8623912,22.6303447],[75.8621542,22.6303064],[75.8619135,22.6302715],[75.8616774,22.6302379],[75.8614486,22.6302202],[75.8612153,22.6302076],[75.8609518,22.6301891],[75.8607577,22.6301858],[75.8607111,22.6301844],[75.8607016,22.6302056],[75.8606285,22.6303792],[75.8605943,22.6304522],[75.8605896,22.6304507],[75.8605508,22.630438],[75.8605377,22.6304337],[75.8604842,22.6304165],[75.8604687,22.630404],[75.8604609,22.6303229],[75.860429,22.6303162],[75.8601728,22.6302385],[75.8599202,22.6301728],[75.8596649,22.6301002],[75.859395,22.6300109],[75.8593211,22.6299846],[75.8592726,22.6299699],[75.8592676,22.6299684],[75.8591703,22.6299391],[75.8591475,22.6299357],[75.8591215,22.6299318],[75.8588781,22.6299169],[75.8587425,22.629921],[75.8586151,22.6299499],[75.8583552,22.6300009],[75.8580963,22.6300507],[75.8578653,22.6301028],[75.8576027,22.6301977],[75.8573475,22.6303037],[75.8572384,22.6303435],[75.8570836,22.6303389],[75.8568237,22.6303239],[75.8565703,22.6303063],[75.8563182,22.6302977],[75.8560643,22.6302904],[75.8559947,22.6302897],[75.8559575,22.6302893],[75.8558118,22.6302758],[75.8555734,22.6302512],[75.8553072,22.6302173],[75.8551332,22.630198],[75.8549282,22.630166],[75.854801,22.6301523],[75.8545503,22.63011],[75.8543037,22.6300576],[75.8540388,22.6300079],[75.8539174,22.6299977],[75.8537781,22.629992],[75.8535,22.6300031],[75.8532429,22.6300397],[75.8529813,22.6300728],[75.8527128,22.6300964],[75.8524799,22.6301259],[75.8522283,22.6301744],[75.8519708,22.6302225],[75.8518621,22.6302469],[75.8516913,22.6302669],[75.8516306,22.6302773],[75.8515464,22.6302878],[75.8514128,22.6303044],[75.851236,22.6303571],[75.8511171,22.6303606],[75.8508554,22.6303651],[75.8505938,22.6303696],[75.8503344,22.6303806],[75.8500755,22.630386],[75.8497965,22.6303882],[75.8495197,22.6303955],[75.849401,22.6303874],[75.8492607,22.630406],[75.8490726,22.6303942],[75.8488091,22.6303816],[75.848546,22.6303733],[75.8482775,22.6303513],[75.8480236,22.630341],[75.8477588,22.6303157],[75.8476661,22.6303049],[75.8475734,22.6302954],[75.8474427,22.6303618],[75.8474139,22.6303764],[75.8473404,22.6304208],[75.847308,22.6304358],[75.8472897,22.6304471],[75.8472235,22.630573],[75.8471514,22.6307189],[75.8470752,22.630866],[75.846993,22.6310109],[75.8469761,22.6310389],[75.8469629,22.6310618],[75.8469629,22.6311606],[75.8469533,22.6313136],[75.8469422,22.6314146],[75.8469396,22.6314374],[75.8468873,22.6315138],[75.8468027,22.6316191],[75.8467081,22.6317237],[75.8466498,22.6317875]],[[75.8627686,22.6327825],[75.8627757,22.632824],[75.8627993,22.6328695],[75.8628505,22.632884],[75.8629062,22.632888],[75.8629102,22.6328069],[75.8628609,22.6328058],[75.8628207,22.6327939],[75.8627686,22.6327825]],[[75.8655348,22.6485416],[75.8655446,22.6485135],[75.8656142,22.6484337],[75.8656662,22.6483948],[75.8657583,22.6484409],[75.8659371,22.6485262],[75.8661164,22.6485862],[75.866236,22.6486459],[75.8663749,22.6487219],[75.8664654,22.6487762],[75.8666339,22.648884],[75.8667721,22.6489641],[75.8667966,22.6489853],[75.8667478,22.6490522],[75.8665903,22.6489693],[75.8663982,22.6488624],[75.8663199,22.6488241],[75.8662253,22.6487625],[75.8661963,22.6487627],[75.8661258,22.6487618],[75.866005,22.6487654],[75.8659978,22.6487483],[75.8659897,22.6486976],[75.8659607,22.6486517],[75.8659073,22.648602],[75.8658196,22.6485572],[75.8657444,22.6485219],[75.8656187,22.6485396],[75.8655348,22.6485416]],[[75.8661626,22.6508377],[75.8661635,22.6508453],[75.8661802,22.6509325],[75.8661931,22.6510202],[75.8662085,22.6511057],[75.8662166,22.6511664],[75.8662255,22.6512047],[75.8663016,22.6511913],[75.8664551,22.6511627],[75.8666074,22.6511363],[75.8666944,22.6511224],[75.8666918,22.6510824],[75.8666806,22.650995],[75.866664,22.650911],[75.8666509,22.6508545],[75.8666434,22.6508338],[75.8666381,22.6508281],[75.8665422,22.6508275],[75.8664395,22.6508307],[75.8662314,22.6508323],[75.8661917,22.6508307],[75.8661705,22.6508296],[75.8661642,22.6508335],[75.8661626,22.6508377]],[[75.8682723,22.6456092],[75.8682969,22.6456365],[75.8683611,22.6456942],[75.8684134,22.6457383],[75.8684511,22.6457655],[75.8685463,22.6458332],[75.8686369,22.645894],[75.868708,22.6459434],[75.8687492,22.6459768],[75.868796,22.646011],[75.8688089,22.6460435],[75.868819,22.6460673],[75.8688309,22.646093],[75.8688477,22.6461202],[75.8688983,22.6461919],[75.8689293,22.6462353],[75.8689803,22.6463163],[75.8689949,22.646349],[75.8690183,22.6464482],[75.8690402,22.6465789],[75.869049,22.6466301],[75.8690563,22.646682],[75.8690382,22.6466869],[75.86906,22.6467446],[75.8690778,22.6468292],[75.8690822,22.64683],[75.8691118,22.6468259],[75.8691352,22.6468151],[75.8691522,22.6467971],[75.8692036,22.6467151],[75.8693124,22.6465336],[75.8693664,22.6464499],[75.8693927,22.6464017],[75.8694216,22.6463357],[75.8694739,22.6462247],[75.8695092,22.6461622],[75.869541,22.6461119],[75.8695865,22.6460514],[75.8695985,22.6460355],[75.8696286,22.6460016],[75.8696874,22.6458874],[75.8697548,22.6457751],[75.869828,22.6456629],[75.8699006,22.645551],[75.8699751,22.6454354],[75.8700107,22.6453816],[75.8700566,22.6453203],[75.8701548,22.6452093],[75.8702145,22.6451488],[75.8702765,22.6450791],[75.8703417,22.6450042],[75.8701875,22.645064],[75.8701038,22.6451639],[75.870043,22.6452438],[75.8699859,22.6453163],[75.869903,22.6454272],[75.8698702,22.6454764],[75.8698145,22.6455575],[75.8697636,22.6456229],[75.869681,22.6457505],[75.8696084,22.6458781],[75.8695366,22.6460068],[75.8694561,22.6461356],[75.8693713,22.6462628],[75.8692915,22.6463907],[75.8692078,22.6465182],[75.8691522,22.6465911],[75.869132,22.64652],[75.8690959,22.646345],[75.8690656,22.6462462],[75.8690502,22.6462133],[75.8689997,22.6461512],[75.8689263,22.646051],[75.8688626,22.6459729],[75.8687962,22.6458934],[75.8687724,22.6458782],[75.8687223,22.6458418],[75.8686747,22.6458107],[75.8686316,22.6457826],[75.8685714,22.6457377],[75.8684661,22.6456672],[75.8683744,22.6456033],[75.868345,22.6456058],[75.8682723,22.6456092]],[[75.8732625,22.6414012],[75.8732627,22.6413327],[75.8732763,22.6413205],[75.873277,22.641152],[75.8732836,22.6410649],[75.873303,22.6410634],[75.8733314,22.6410178],[75.8733606,22.6409981],[75.8733994,22.6409705],[75.8734449,22.6409664],[75.8734711,22.6409451],[75.8735195,22.6409307],[75.8735489,22.640911],[75.8735688,22.6408872],[75.8737146,22.6408366],[75.8738475,22.6408491],[75.8738866,22.6408909],[75.8738869,22.6409385],[75.8739179,22.6410365],[75.8739336,22.641091],[75.8739595,22.6411577],[75.873975,22.641203],[75.873994,22.6412809],[75.874008,22.6413553],[75.8740153,22.6414576],[75.8739986,22.6414927],[75.8739781,22.6415615],[75.8739565,22.6416059],[75.8739348,22.6416461],[75.8738994,22.6416645],[75.8737857,22.6417087],[75.8737278,22.6417209],[75.8736532,22.6417295],[75.8735719,22.6417371],[75.8735253,22.6416452],[75.873507,22.6415857],[75.8734538,22.6415371],[75.8733656,22.6414779],[75.8732625,22.6414012]],[[75.8741273,22.646349],[75.8741463,22.6464029],[75.8741894,22.6465387],[75.8742337,22.646671],[75.8742832,22.6468033],[75.8743102,22.6468563],[75.8744409,22.6468169],[75.8745341,22.6467911],[75.8746175,22.6467686],[75.8746271,22.646766],[75.8746787,22.646761],[75.8747179,22.6467514],[75.8748045,22.6467352],[75.8748519,22.6467184],[75.8748904,22.6467023],[75.874888,22.6466743],[75.8748791,22.646626],[75.87488,22.6465907],[75.8748764,22.64655],[75.8748641,22.6464765],[75.8748439,22.6463948],[75.8748391,22.6463714],[75.8748295,22.6463572],[75.8748031,22.6463351],[75.8747666,22.6463101],[75.8747156,22.6462807],[75.8746856,22.6462699],[75.8746635,22.6462689],[75.8745817,22.6462791],[75.87448,22.646296],[75.8744771,22.6462965],[75.8743755,22.6463158],[75.874319,22.6463246],[75.8742681,22.6463315],[75.8741981,22.6463401],[75.8741273,22.646349]],[[75.8790455,22.6383256],[75.8790457,22.6383256],[75.8790628,22.6381334],[75.8790455,22.6383256]],[[75.882318,22.6443318],[75.8823496,22.6443081],[75.882407,22.6442666],[75.8824486,22.6442334],[75.8824969,22.6442034],[75.8825119,22.6441952],[75.8825163,22.6442],[75.8825469,22.644245],[75.8826036,22.6443195],[75.8825666,22.6443637],[75.8825304,22.6444104],[75.882466,22.6444589],[75.8823997,22.6444008],[75.8823738,22.6443839],[75.882318,22.6443318]]]}},{"type":"Feature","properties":{"loc_id":5027280,"name":"Kalod Kartal","name_hi":"कैलोदकर्ताल","lgd_code":"476255","polygons":1535},"geometry":{"type":"Point","coordinates":[75.8699822,22.6404545]}},{"type":"Feature","properties":{"loc_id":5027281,"name":"Morod","name_hi":"मोरोद नेहरू","lgd_code":"476257","polygons":1457},"geometry":{"type":"MultiLineString","coordinates":[[[75.8515925,22.5994007],[75.8516691,22.5998548],[75.8517213,22.6001516],[75.8518051,22.6006282],[75.8519103,22.6015607],[75.8522653,22.6017752],[75.8523553,22.6024119],[75.8525318,22.6036847],[75.8535832,22.6039954],[75.8545958,22.6042969],[75.8546062,22.6042991],[75.8547189,22.6043228],[75.8552026,22.6048722],[75.8552516,22.6049279],[75.8553273,22.605011],[75.8557641,22.6054909],[75.8557909,22.6055978],[75.8558893,22.6058037],[75.8564618,22.6069943],[75.8568474,22.6077964],[75.8570312,22.6081788],[75.8566685,22.6095332],[75.8564645,22.6102952],[75.8561459,22.6114726],[75.8559822,22.612081],[75.8559443,22.6122665],[75.8559541,22.6128638],[75.8559531,22.6133551],[75.8559729,22.6134742],[75.8559984,22.6136277],[75.8560075,22.6138411],[75.8561452,22.6140358],[75.8562255,22.6141457],[75.8563494,22.6143213],[75.8563918,22.6143816],[75.8565463,22.6146047],[75.8567217,22.6148427],[75.8568958,22.6150886],[75.8570908,22.6153193],[75.8572886,22.6155635],[75.8572951,22.6155699],[75.8573961,22.6156694],[75.8575138,22.6157514],[75.8576954,22.6160695],[75.85785,22.6163219],[75.8580214,22.6165753],[75.8580357,22.6165963],[75.8581129,22.6167184],[75.8582351,22.6169274],[75.8583337,22.6170961],[75.8585544,22.6174646],[75.8587852,22.6178462],[75.8590182,22.6182258],[75.8592512,22.6186145],[75.8593977,22.6188542],[75.8594887,22.6190032],[75.8597273,22.6193918],[75.8598557,22.6195981],[75.8599277,22.6197138],[75.8599337,22.6197666],[75.8599859,22.6201647],[75.8599992,22.620276],[75.8600051,22.6203254],[75.8600337,22.6205639],[75.8600815,22.6209631],[75.860101,22.6211504],[75.8601226,22.6213562],[75.8601737,22.6217594],[75.8602171,22.6221576],[75.8602428,22.6223782],[75.8602625,22.6225477],[75.860318,22.6229458],[75.8603658,22.6233388],[75.8604135,22.6237319],[75.8604397,22.6239483],[75.8604843,22.6241125],[75.8604893,22.6241354],[75.8605672,22.6244929],[75.8606419,22.624827],[75.86065,22.6248632],[75.8606695,22.6249463],[75.8606842,22.6250139],[75.860776,22.625241],[75.8609318,22.6256327],[75.8610633,22.6259068],[75.8611219,22.6260291],[75.8611345,22.6261958],[75.8610913,22.6264191],[75.8610386,22.6268104],[75.8609771,22.6272089],[75.8609354,22.627478],[75.8609226,22.6275256],[75.8609013,22.6276045],[75.8608564,22.6277607],[75.8608198,22.627988],[75.860777,22.6283782],[75.8607704,22.6285349],[75.8607662,22.6286367],[75.860753,22.6287721],[75.8607395,22.6289859],[75.8607164,22.6291123],[75.8607026,22.6291664],[75.8606333,22.6295528],[75.8605736,22.6298408],[75.860554,22.6299353],[75.8604792,22.6303177],[75.8604788,22.6304001],[75.8607426,22.630407],[75.8611113,22.6304257],[75.8613355,22.6304453],[75.8617275,22.6304699],[75.8623777,22.6305035],[75.8630334,22.6305268],[75.8635699,22.6305516],[75.8637165,22.6305335],[75.8643867,22.630459],[75.8650471,22.6303947],[75.8656986,22.6303275],[75.8661352,22.6302803],[75.8663715,22.6302977],[75.8670578,22.6302983],[75.8676719,22.6303016],[75.8677342,22.6302989],[75.8683821,22.630306],[75.8688643,22.6303122],[75.8690692,22.630276],[75.8696786,22.630185],[75.8697288,22.6301062],[75.8697418,22.6300858],[75.8703855,22.6299352],[75.8704436,22.6299261],[75.8705757,22.6299052],[75.8709836,22.6298407],[75.8713228,22.6297868],[75.8720332,22.629674],[75.8727938,22.6295157],[75.8732121,22.629431],[75.8736005,22.6293524],[75.8742541,22.6292201],[75.8746084,22.6291484],[75.8747325,22.6291574],[75.8748165,22.6291635],[75.8749033,22.6291697],[75.8759008,22.6291381],[75.8760502,22.6291337],[75.8760987,22.6291323],[75.8770519,22.629104],[75.8775795,22.6290863],[75.8781233,22.6289469],[75.8783527,22.6287756],[75.8784597,22.6286955],[75.8786496,22.6286293],[75.8794985,22.6284236],[75.8801138,22.6282689],[75.8803832,22.6282057],[75.8808537,22.6280953],[75.8821388,22.6277931],[75.8823634,22.6277146],[75.8826874,22.6276708],[75.883535,22.627549],[75.8836497,22.6275214],[75.8837193,22.6275156],[75.8845168,22.627281],[75.885691,22.6269287],[75.8865941,22.6266649],[75.8866946,22.6266356],[75.8867605,22.6266163],[75.8867911,22.6266074],[75.8868354,22.6265551],[75.8867912,22.6261092],[75.8867522,22.6257588],[75.8867418,22.625696],[75.8866715,22.6252678],[75.8866377,22.6250409],[75.8865374,22.6244359],[75.8865091,22.6242529],[75.8865106,22.6240812],[75.8865242,22.6238051],[75.8865278,22.6237327],[75.8865567,22.6230575],[75.8865636,22.6228653],[75.8865731,22.6226041],[75.8865738,22.6225499],[75.8865883,22.6224675],[75.886695,22.6218247],[75.8868045,22.6211985],[75.8868632,22.620877],[75.8868841,22.6207629],[75.8869121,22.6206066],[75.8869488,22.6203687],[75.8870214,22.6198966],[75.8871413,22.6191313],[75.8871712,22.6190852],[75.8872641,22.6188067],[75.8872983,22.6187589],[75.8873301,22.6186595],[75.8873368,22.6186097],[75.8873606,22.6184389],[75.887415,22.6179942],[75.8874276,22.6179293],[75.8874593,22.6176755],[75.8874766,22.6175607],[75.8874909,22.6174341],[75.8875221,22.6172465],[75.8875365,22.6170915],[75.8875535,22.6170795],[75.8875712,22.6170598],[75.8875164,22.6169247],[75.8874122,22.6166676],[75.8873261,22.6164553],[75.8872587,22.616289],[75.887175,22.6160826],[75.887164,22.6160555],[75.8871125,22.6159223],[75.8869948,22.6156176],[75.8868568,22.6152607],[75.886758,22.6150048],[75.8866307,22.6146755],[75.8865615,22.6146023],[75.8853005,22.614708],[75.8852511,22.6146991],[75.8852151,22.614567],[75.8850507,22.6133096],[75.8850489,22.613296],[75.8848377,22.6130312],[75.8843361,22.6124021],[75.8843109,22.6123832],[75.8843096,22.6123826],[75.8835884,22.6120315],[75.8835527,22.612031],[75.8827621,22.6116676],[75.8827088,22.6116641],[75.8822247,22.6113926],[75.8821821,22.6113829],[75.8817429,22.6110956],[75.8817088,22.6110844],[75.8813365,22.6107243],[75.8812993,22.6107109],[75.8812277,22.6106766],[75.8812235,22.6105885],[75.881203,22.6101542],[75.8811861,22.6099706],[75.8811475,22.6095516],[75.8811172,22.6092344],[75.8810802,22.6088212],[75.8810615,22.6085575],[75.8810381,22.6085372],[75.8810644,22.6084035],[75.8811731,22.6078568],[75.881312,22.6072125],[75.8815413,22.6061142],[75.8815204,22.6060855],[75.8814861,22.605982],[75.8812568,22.6052491],[75.8811633,22.6049296],[75.8811961,22.6046271],[75.8812243,22.6043955],[75.8812401,22.604289],[75.8808685,22.6036411],[75.8808294,22.6035718],[75.8807995,22.6035186],[75.8804557,22.6029088],[75.88037,22.6027693],[75.8803562,22.602154],[75.880341,22.6016035],[75.8803215,22.6008602],[75.8803199,22.6007993],[75.8802886,22.6007432],[75.8799493,22.6007553],[75.8797112,22.6007639],[75.8795417,22.6007773],[75.8790336,22.6008176],[75.8787833,22.6008164],[75.8784958,22.600815],[75.8779704,22.6006543],[75.8774223,22.6004783],[75.8768079,22.6004759],[75.8762808,22.600475],[75.8762223,22.6004779],[75.8756731,22.6005052],[75.8747657,22.6005504],[75.8740047,22.6005791],[75.8734868,22.6009476],[75.8732437,22.601122],[75.8729614,22.6011687],[75.8728631,22.601188],[75.8727548,22.6012093],[75.872737,22.6011984],[75.8723863,22.6009836],[75.8715648,22.6007831],[75.8712077,22.6006981],[75.8711934,22.6007131],[75.8707052,22.6009106],[75.8702109,22.6011127],[75.8697391,22.6011645],[75.8696592,22.6011507],[75.8695165,22.6012615],[75.8694293,22.6011962],[75.869167,22.599943],[75.8687218,22.5997392],[75.8676137,22.5992568],[75.8671935,22.5991889],[75.8670144,22.6000356],[75.8669964,22.6001924],[75.8664299,22.6002794],[75.8657092,22.5999484],[75.865701,22.5999417],[75.8644685,22.5989404],[75.8643129,22.5987],[75.8639035,22.5984166],[75.8638257,22.598161],[75.8636805,22.5976847],[75.8632655,22.5963793],[75.8627082,22.5960232],[75.8627568,22.5954202],[75.8622561,22.5954079],[75.8610575,22.5954036],[75.8591125,22.5954102],[75.8587206,22.5954216],[75.857338,22.5957602],[75.8563005,22.5960189],[75.8553282,22.5964699],[75.8551782,22.5965397],[75.8538026,22.5971802],[75.8536498,22.597268],[75.8536233,22.5972833],[75.8536208,22.5972818],[75.8535294,22.5972287],[75.852977,22.5969076],[75.8523622,22.5976999],[75.851795,22.5991932],[75.8515925,22.5994007]],[[75.8799792,22.6186947],[75.8799792,22.6186948],[75.8799793,22.6186948],[75.8799793,22.6186947],[75.8799792,22.6186947]],[[75.8824743,22.6255053],[75.8824834,22.6256973],[75.8824972,22.6259924],[75.8825054,22.6261495],[75.8825047,22.6261647],[75.8825162,22.6261645],[75.8827424,22.6261554],[75.8827287,22.6258815],[75.8827201,22.6254976],[75.8824743,22.6255053]],[[75.8851989,22.6248244],[75.8852032,22.6249592],[75.8853839,22.6249531],[75.8853782,22.624817],[75.8851989,22.6248244]],[[75.8853507,22.6239456],[75.8853508,22.6238316],[75.8853805,22.6238286],[75.885541,22.6238188],[75.8855478,22.6239365],[75.8853507,22.6239456]],[[75.8856165,22.6237303],[75.885618,22.6239412],[75.8858969,22.6239419],[75.8859752,22.6239445],[75.8859615,22.6237144],[75.8856165,22.6237303]]]}},{"type":"Feature","properties":{"loc_id":5027281,"name":"Morod","name_hi":"मोरोद नेहरू","lgd_code":"476257","polygons":1457},"geometry":{"type":"Point","coordinates":[75.8703847,22.6135378]}},{"type":"Feature","properties":{"loc_id":5027283,"name":"Umri Kheda","name_hi":"उमरीखेडा","lgd_code":"476258","polygons":953},"geometry":{"type":"MultiLineString","coordinates":[[[75.8801902,22.600907],[75.880221,22.601732],[75.8802375,22.6024357],[75.8802412,22.6025648],[75.8802541,22.6027303],[75.8802851,22.6030442],[75.8804823,22.6033496],[75.8805492,22.6034653],[75.8810517,22.6043382],[75.8811816,22.6045367],[75.8811511,22.6047869],[75.8810953,22.6051707],[75.8811355,22.6052858],[75.8812586,22.6056385],[75.881293,22.6057369],[75.8813188,22.6057952],[75.8813921,22.6060113],[75.8814974,22.6063222],[75.8814452,22.6066228],[75.8814344,22.6066852],[75.881397,22.6068839],[75.8813681,22.6069942],[75.8812992,22.6074744],[75.881263,22.6076532],[75.8812194,22.6078578],[75.8811864,22.6079873],[75.8811472,22.6082219],[75.881091,22.6085582],[75.8810639,22.6087433],[75.8810877,22.6089473],[75.8811081,22.6091225],[75.8811052,22.6092783],[75.8811118,22.6093311],[75.8811749,22.6098326],[75.8811898,22.6101126],[75.8812238,22.6104374],[75.8812333,22.6105284],[75.8812341,22.6106768],[75.8811134,22.6107622],[75.8812192,22.6107991],[75.8813343,22.6108354],[75.8815,22.6109902],[75.8817517,22.6112274],[75.8818993,22.611327],[75.882254,22.6115443],[75.8825003,22.6116723],[75.8827388,22.6118112],[75.8832434,22.6120088],[75.8836024,22.6121658],[75.8839758,22.6123289],[75.8843547,22.6125162],[75.8844895,22.6126798],[75.8845155,22.61271],[75.8845461,22.6127454],[75.8847981,22.6130372],[75.8850117,22.6132919],[75.8850647,22.6133582],[75.8850651,22.6133965],[75.8850658,22.6134528],[75.8851011,22.6136812],[75.885162,22.6140755],[75.8851997,22.6144221],[75.8852576,22.6147619],[75.8852928,22.6147806],[75.8859119,22.6147455],[75.886445,22.6146928],[75.8865428,22.6146588],[75.8866119,22.6148198],[75.8866399,22.6148692],[75.8867741,22.6151804],[75.8868995,22.6155325],[75.8870411,22.6158843],[75.8871448,22.6161359],[75.8872738,22.616517],[75.8873281,22.6166795],[75.887399,22.6168205],[75.8874047,22.616832],[75.8874495,22.6169383],[75.8875147,22.6170978],[75.8875018,22.6172019],[75.8874917,22.6172834],[75.8874836,22.6173483],[75.8874795,22.6174021],[75.8874516,22.6175878],[75.8874342,22.6177031],[75.8874018,22.6179359],[75.887345,22.6184016],[75.887316,22.6187072],[75.8873104,22.6187666],[75.887412,22.6187568],[75.8877649,22.6187521],[75.8881182,22.618731],[75.8884692,22.6187016],[75.8885884,22.618687],[75.8888131,22.6186706],[75.8889344,22.6186587],[75.8890496,22.6186455],[75.8891183,22.6185818],[75.8891384,22.6185636],[75.8892848,22.6184208],[75.8894321,22.618278],[75.8895793,22.6181337],[75.8897202,22.6179918],[75.8898626,22.6178477],[75.8899599,22.6177593],[75.8900314,22.6176904],[75.8901415,22.6176693],[75.8902901,22.6176171],[75.8905683,22.6175156],[75.8906563,22.6174825],[75.8906872,22.6174717],[75.8907179,22.6174599],[75.8910978,22.6173168],[75.891365,22.617217],[75.891625,22.6171195],[75.8918561,22.6170372],[75.8920881,22.6169548],[75.8922016,22.6168811],[75.8923562,22.6168493],[75.8925952,22.6167769],[75.8927441,22.6167329],[75.892916,22.6166753],[75.8929496,22.616695],[75.8929491,22.6167245],[75.89296,22.616753],[75.8929941,22.6167753],[75.8930258,22.6167834],[75.8930612,22.6167731],[75.8931027,22.6167467],[75.8931288,22.6167469],[75.8931709,22.616761],[75.8932216,22.6168008],[75.893253,22.6167654],[75.8932071,22.6167323],[75.8931953,22.6167144],[75.8931941,22.6166793],[75.893206,22.616662],[75.8932269,22.6166536],[75.8932503,22.6166525],[75.8932832,22.6166587],[75.8933416,22.6166785],[75.8933847,22.6167021],[75.8934212,22.6167013],[75.8934843,22.6166876],[75.8935083,22.6166555],[75.893498,22.6165768],[75.8934658,22.6165229],[75.8934659,22.6164766],[75.893467,22.616445],[75.893483,22.6164231],[75.8934957,22.6163905],[75.8935117,22.6163668],[75.8935254,22.6163324],[75.8935452,22.6163072],[75.8935516,22.6162918],[75.8935642,22.6162538],[75.8935778,22.6162176],[75.8935751,22.6161347],[75.8935697,22.6160908],[75.8935316,22.6160108],[75.8934916,22.6159619],[75.8934783,22.6159452],[75.8934215,22.6158962],[75.8933761,22.6158631],[75.8933008,22.6157889],[75.8932752,22.6157598],[75.8932433,22.6157175],[75.8932526,22.6157041],[75.8932515,22.6155751],[75.8932589,22.6154444],[75.8932845,22.6152285],[75.8935934,22.6152238],[75.8938122,22.6151608],[75.8939736,22.6150993],[75.894622,22.6149317],[75.8948748,22.6148889],[75.8949698,22.6148785],[75.8951503,22.6148413],[75.8955031,22.6148004],[75.8957533,22.6147667],[75.8957869,22.6148208],[75.8958091,22.6148017],[75.8958433,22.614789],[75.895871,22.6147967],[75.8958871,22.6148444],[75.895892,22.6148786],[75.8958984,22.6149102],[75.8959193,22.6149404],[75.8959317,22.6149478],[75.895953,22.6149617],[75.8959952,22.6149698],[75.8960396,22.6149729],[75.8960795,22.6149797],[75.8961201,22.6149837],[75.8961538,22.6149878],[75.8961793,22.6149956],[75.8962037,22.6149957],[75.8962279,22.6149889],[75.896252,22.6149772],[75.8962629,22.6149624],[75.8962636,22.6149359],[75.8962569,22.6149173],[75.8962333,22.6148949],[75.8962226,22.6148707],[75.8962198,22.6148583],[75.8962318,22.614849],[75.8962468,22.6148431],[75.8962607,22.6148316],[75.8962795,22.6148397],[75.8963006,22.614842],[75.896318,22.6148412],[75.8963443,22.6148352],[75.8963727,22.6148219],[75.8963888,22.6148201],[75.8964621,22.6146807],[75.8964852,22.6146456],[75.8965422,22.6145965],[75.8965995,22.6145568],[75.8967225,22.6144723],[75.8967688,22.6144452],[75.8968189,22.6144252],[75.8968586,22.6144159],[75.89694,22.6144137],[75.8969809,22.6144187],[75.8969975,22.6144229],[75.8970376,22.6144252],[75.8970606,22.6144299],[75.8970948,22.6144252],[75.897138,22.6144142],[75.8971776,22.6144009],[75.8972141,22.6143812],[75.8972516,22.61437],[75.8972823,22.6143686],[75.897296,22.6143742],[75.8973027,22.6143819],[75.897318,22.6143913],[75.8973297,22.6143988],[75.897343,22.6144116],[75.8973557,22.6144292],[75.8973734,22.6144457],[75.8973944,22.6144759],[75.8974235,22.6144928],[75.8974597,22.6145044],[75.8975085,22.6145023],[75.8975593,22.6144686],[75.8975844,22.6144518],[75.8976159,22.6144087],[75.8976496,22.6143458],[75.8976787,22.6142982],[75.8977096,22.6142585],[75.8977491,22.6142413],[75.8978,22.6142258],[75.8978429,22.6142259],[75.8978894,22.6142287],[75.8979387,22.6142485],[75.8979792,22.6142625],[75.8980356,22.6142632],[75.8980652,22.6142499],[75.8980974,22.614227],[75.8981207,22.6141972],[75.8981485,22.6141298],[75.8981605,22.6141048],[75.8981877,22.6140605],[75.8982248,22.6140148],[75.8982509,22.6140057],[75.8982922,22.6140006],[75.8983358,22.6139996],[75.8983752,22.6140046],[75.8984197,22.6140101],[75.8984451,22.6140219],[75.8984897,22.614029],[75.8985237,22.6140433],[75.8985548,22.6140543],[75.8985822,22.6140615],[75.8985974,22.6140664],[75.8986168,22.6140705],[75.8986507,22.61406],[75.8986903,22.6140448],[75.8987425,22.6140039],[75.8987687,22.6139746],[75.8987905,22.6139396],[75.8988125,22.6138916],[75.898839,22.6138503],[75.8988464,22.6138371],[75.8988671,22.6138138],[75.8989078,22.6137901],[75.8989416,22.613777],[75.8989685,22.6137673],[75.8990005,22.613764],[75.8990441,22.613763],[75.8990843,22.6137673],[75.8991117,22.6137771],[75.8991307,22.6137884],[75.899165,22.6138114],[75.8991803,22.6138195],[75.8992411,22.6138227],[75.8992575,22.6138191],[75.8992954,22.6138209],[75.8993521,22.6138277],[75.8993908,22.6138327],[75.8994005,22.6138436],[75.8994169,22.6138426],[75.8994403,22.6138388],[75.899487,22.6138228],[75.8995129,22.6138059],[75.8995401,22.6137858],[75.8995635,22.6137602],[75.8995794,22.6137435],[75.8995983,22.6137079],[75.8996116,22.6136777],[75.8996023,22.6136346],[75.899602,22.6136242],[75.8995775,22.6135759],[75.8995582,22.6135089],[75.8995532,22.6134856],[75.8995651,22.6134573],[75.8996187,22.6134151],[75.8996855,22.6133807],[75.8997341,22.6133594],[75.8997628,22.6133418],[75.8997778,22.6133409],[75.8997955,22.6133346],[75.8998248,22.6133339],[75.8998473,22.6133458],[75.8998648,22.6133578],[75.8998763,22.6133797],[75.8999037,22.6134094],[75.8999346,22.6134373],[75.8999659,22.6134529],[75.9000012,22.6134526],[75.9000699,22.6134549],[75.9000854,22.613467],[75.9001081,22.6134903],[75.9001156,22.6135101],[75.9001404,22.6135413],[75.9001895,22.613557],[75.9002631,22.6135493],[75.9003327,22.6135255],[75.9004002,22.6134858],[75.9005163,22.6133977],[75.9006124,22.6133099],[75.9006646,22.613266],[75.9007153,22.6132771],[75.9007701,22.6133118],[75.9008472,22.6133635],[75.9009326,22.6133985],[75.9009894,22.6133925],[75.9013306,22.6133323],[75.9013407,22.6132834],[75.9014028,22.6129803],[75.901416,22.6129288],[75.9015008,22.6125922],[75.9015184,22.6125215],[75.9015776,22.6122003],[75.9016192,22.6120202],[75.901668,22.611797],[75.9016848,22.61172],[75.9017148,22.6115829],[75.9017138,22.6111522],[75.9017056,22.6107538],[75.9017054,22.6107446],[75.9017071,22.6103458],[75.9016921,22.609963],[75.9017058,22.609555],[75.9017013,22.60934],[75.9016916,22.6092708],[75.9016728,22.6092197],[75.9016285,22.6091445],[75.9015924,22.6090938],[75.9015332,22.6089934],[75.9013803,22.6088743],[75.9012074,22.6083527],[75.9011325,22.6079921],[75.9011277,22.6079433],[75.9010669,22.6073201],[75.9010812,22.6070577],[75.9010204,22.6068927],[75.9010098,22.606864],[75.9009545,22.6067822],[75.9009128,22.6066937],[75.9008626,22.6065779],[75.9007417,22.6063265],[75.9006814,22.6062609],[75.9006004,22.606198],[75.9004729,22.6059845],[75.9003374,22.6057657],[75.9002847,22.6056874],[75.9002316,22.6056086],[75.9001389,22.6055033],[75.9000169,22.6053297],[75.8998825,22.6051498],[75.8998861,22.6051323],[75.8998277,22.6050269],[75.8996115,22.6046838],[75.899576,22.6046228],[75.8995341,22.6045508],[75.8991545,22.6040292],[75.8990739,22.6038853],[75.8989701,22.603686],[75.8988519,22.6034564],[75.8987989,22.603348],[75.8986675,22.6031419],[75.898624,22.6030795],[75.8981449,22.6024016],[75.8981087,22.6023593],[75.8980887,22.6023259],[75.8980447,22.6022573],[75.8979848,22.6021629],[75.8979669,22.6021348],[75.897951,22.6021123],[75.897901,22.6020419],[75.8978377,22.6019451],[75.8977966,22.6018895],[75.8977274,22.6018091],[75.8976754,22.6017487],[75.8976593,22.6017299],[75.8976267,22.6017045],[75.8975292,22.6016138],[75.897374,22.6014685],[75.8972144,22.6013259],[75.8970672,22.601184],[75.8969793,22.6011058],[75.8969446,22.6010399],[75.8968334,22.6008937],[75.8967221,22.6007476],[75.896616,22.6006004],[75.8965099,22.6004532],[75.8963956,22.6003089],[75.8963523,22.6002525],[75.8960993,22.5999145],[75.8959581,22.5997517],[75.8957932,22.5996853],[75.8957077,22.5996526],[75.8956524,22.5996246],[75.8956414,22.599617],[75.895632,22.5996081],[75.8956184,22.5995855],[75.8955992,22.5995685],[75.8955722,22.5995572],[75.8955465,22.5995512],[75.895505,22.5995476],[75.8954225,22.5995499],[75.8954025,22.5995523],[75.8953964,22.599553],[75.8953466,22.5995589],[75.8952448,22.5995904],[75.8951557,22.5995965],[75.8951243,22.5995813],[75.8951232,22.5995535],[75.895104,22.5995449],[75.8950637,22.5995455],[75.8950314,22.5995505],[75.8950584,22.5994967],[75.8951263,22.5993612],[75.8951568,22.5992952],[75.8951597,22.5992889],[75.8952118,22.5991762],[75.8952342,22.5991334],[75.8952734,22.5990585],[75.8953608,22.5988915],[75.8954383,22.5987405],[75.8954398,22.5987375],[75.8954422,22.5987324],[75.8955586,22.5984811],[75.8956674,22.5982548],[75.8956715,22.5982464],[75.8957138,22.5981549],[75.89578,22.5980119],[75.8957834,22.5980046],[75.8958555,22.5978378],[75.8958717,22.5978003],[75.8958881,22.5977635],[75.8959484,22.5976283],[75.8959701,22.5975794],[75.8963823,22.5967631],[75.8962868,22.5967518],[75.8961761,22.5967428],[75.896078,22.5967331],[75.8959337,22.5966608],[75.8959197,22.5966537],[75.895743,22.5965613],[75.8955663,22.5964689],[75.8954411,22.5964065],[75.8953207,22.5964021],[75.8950811,22.5963964],[75.8948422,22.5963907],[75.8946033,22.5963875],[75.8943644,22.5963843],[75.8941229,22.5963881],[75.8938811,22.5963824],[75.8937327,22.5963794],[75.8936516,22.5963562],[75.8936344,22.5963513],[75.8934827,22.596308],[75.8933137,22.5963318],[75.8930826,22.5963653],[75.8928523,22.5964025],[75.892626,22.5964359],[75.8924058,22.5964674],[75.8921804,22.5965107],[75.8919557,22.5965578],[75.8917369,22.5965898],[75.8914951,22.5966334],[75.8912525,22.5966771],[75.8909987,22.5967083],[75.8905387,22.5967963],[75.8903762,22.596828],[75.8902273,22.5968537],[75.8899952,22.596901],[75.8899127,22.596915],[75.889742,22.5969553],[75.8897344,22.5969571],[75.8896807,22.5969663],[75.8895584,22.596987],[75.8893849,22.597009],[75.8890066,22.5970666],[75.8858464,22.5977475],[75.8857694,22.5977655],[75.885519,22.5978173],[75.8834756,22.5982391],[75.8834556,22.5982555],[75.8822618,22.5992357],[75.8821751,22.5993085],[75.882082,22.5993814],[75.8820563,22.5994047],[75.8820004,22.5994555],[75.8816446,22.5997362],[75.8812104,22.6000786],[75.8811779,22.6001043],[75.880954,22.6002851],[75.8801902,22.600907]],[[75.8925709,22.6050293],[75.892585,22.6050094],[75.8925902,22.6049889],[75.8926114,22.6049535],[75.8926245,22.6049166],[75.89263,22.6049038],[75.8926504,22.6048767],[75.8926795,22.6048234],[75.8926938,22.6048032],[75.8927431,22.6047305],[75.8927635,22.6047034],[75.8927851,22.6046698],[75.8928662,22.6046702],[75.8928889,22.6046751],[75.8929202,22.6046728],[75.8929579,22.6046712],[75.8930657,22.6046699],[75.8931231,22.6046701],[75.8932303,22.6046709],[75.8933827,22.6046653],[75.8934569,22.6046642],[75.8934777,22.6046613],[75.8935113,22.60466],[75.893571,22.6046597],[75.8936633,22.6046633],[75.8937015,22.6046623],[75.8937658,22.6046581],[75.8938093,22.6046591],[75.8938065,22.6045951],[75.8938057,22.604583],[75.893801,22.6045111],[75.8937979,22.6044969],[75.893791,22.6044308],[75.8937901,22.6044124],[75.8937781,22.6043501],[75.8937755,22.6043333],[75.8937622,22.6042668],[75.8937608,22.6042557],[75.8937463,22.6041834],[75.8937454,22.6041666],[75.8937398,22.6041398],[75.8937397,22.6041395],[75.893734,22.6041051],[75.8937552,22.6041006],[75.8937801,22.6040976],[75.8938113,22.6040909],[75.8938691,22.6040808],[75.8939113,22.6040754],[75.8940125,22.60406],[75.8940611,22.604054],[75.8941086,22.6040491],[75.8941665,22.6040438],[75.894226,22.6040334],[75.8943344,22.6040082],[75.8943622,22.6040014],[75.8943998,22.6039948],[75.8944178,22.6039934],[75.8944209,22.6039784],[75.8944153,22.6039298],[75.8944137,22.6039173],[75.89441,22.6038635],[75.8944074,22.6038532],[75.8943994,22.6037965],[75.8943992,22.6037819],[75.8943945,22.6037281],[75.8943916,22.6036989],[75.8943854,22.6036623],[75.8943831,22.6036095],[75.8943803,22.6035739],[75.8943789,22.6035564],[75.8943661,22.6035567],[75.8943386,22.6035563],[75.894306,22.6035563],[75.8942056,22.6035595],[75.8940742,22.6035576],[75.8939513,22.6035571],[75.8938211,22.6035587],[75.8937661,22.6035616],[75.8937416,22.6035619],[75.8937279,22.6035621],[75.8937089,22.6035634],[75.8936562,22.603566],[75.8935669,22.6035678],[75.8934682,22.6035725],[75.8934544,22.6035751],[75.8934196,22.6035786],[75.8934195,22.6035682],[75.8934248,22.6035561],[75.8934293,22.6035384],[75.8934367,22.6035055],[75.8934385,22.6034911],[75.8934452,22.6034737],[75.8934476,22.6034569],[75.8934634,22.6034063],[75.8934767,22.6033589],[75.8934806,22.6033459],[75.8934938,22.6033086],[75.8934978,22.6032975],[75.8935075,22.6032583],[75.8935121,22.6032463],[75.8935263,22.6032074],[75.8935306,22.6031988],[75.8935352,22.6031796],[75.8935434,22.6031583],[75.8935478,22.6031498],[75.8935561,22.6031346],[75.8935726,22.6031075],[75.8935867,22.6031048],[75.8936488,22.6031053],[75.8936823,22.6031036],[75.8937023,22.6031058],[75.8937507,22.6031082],[75.8938352,22.6031095],[75.8938753,22.6031121],[75.893933,22.6031167],[75.8940128,22.6031185],[75.894077,22.6031185],[75.8941236,22.6031215],[75.894163,22.603125],[75.8942324,22.6031263],[75.8942662,22.6031274],[75.8943194,22.6031307],[75.8943242,22.6030894],[75.8943237,22.6030533],[75.8943258,22.6030165],[75.8943291,22.6029998],[75.8943286,22.6029829],[75.8943302,22.6029612],[75.8943294,22.6029304],[75.8943295,22.6028953],[75.894329,22.6028799],[75.8943278,22.6028612],[75.8943156,22.6028614],[75.8943173,22.602843],[75.8943345,22.6028328],[75.8943454,22.6028329],[75.8943568,22.6028382],[75.8943787,22.6028382],[75.8944184,22.6028398],[75.8944326,22.602839],[75.8944444,22.6028422],[75.8944441,22.6028585],[75.8944477,22.6028923],[75.8944524,22.6029498],[75.8944533,22.6029644],[75.8944565,22.6029878],[75.894458,22.6030035],[75.8945182,22.6030105],[75.894576,22.6030187],[75.8946344,22.6030297],[75.8946534,22.6030348],[75.8946805,22.6030408],[75.8946799,22.6030631],[75.8946814,22.6030789],[75.8946864,22.6030951],[75.8946874,22.6031113],[75.8946871,22.6031313],[75.8946917,22.6031561],[75.894693,22.6031728],[75.8946959,22.6032209],[75.8946996,22.6032779],[75.8947009,22.6032998],[75.8947025,22.6033266],[75.8947053,22.6033678],[75.8947056,22.6034168],[75.8947064,22.6034259],[75.8947087,22.6034753],[75.8947104,22.6035117],[75.8947112,22.6035234],[75.8947108,22.6035637],[75.8947121,22.6036125],[75.8947124,22.603661],[75.8947126,22.6036704],[75.8947129,22.6037192],[75.8947135,22.6037477],[75.8947125,22.6037598],[75.8947129,22.6037998],[75.8947136,22.6038185],[75.8947156,22.6038538],[75.8947143,22.6038676],[75.8947173,22.6039046],[75.8947184,22.6039151],[75.8947218,22.603951],[75.8947226,22.6039647],[75.8947249,22.6039763],[75.8947266,22.6040107],[75.8947278,22.6040362],[75.8947293,22.6040566],[75.8947304,22.6040703],[75.8947352,22.6040983],[75.8947364,22.6041154],[75.8947401,22.6041452],[75.8947456,22.6041688],[75.8947474,22.6041778],[75.8947558,22.6042224],[75.8947577,22.6042368],[75.8947627,22.60427],[75.894766,22.6042962],[75.8947714,22.6043272],[75.8947749,22.6043452],[75.8947794,22.6043577],[75.894788,22.6043861],[75.8947899,22.6044048],[75.8947921,22.604417],[75.8948,22.6044537],[75.894801,22.6044674],[75.8948024,22.6044774],[75.8948099,22.6045146],[75.8948113,22.6045282],[75.8948155,22.6045506],[75.8948207,22.6045782],[75.8948229,22.6045915],[75.8948285,22.6046344],[75.8948303,22.6046477],[75.8948325,22.6046606],[75.8948382,22.6047028],[75.8948412,22.6047196],[75.8948433,22.6047409],[75.8948448,22.6047571],[75.8948474,22.6047704],[75.8948528,22.604823],[75.8948547,22.6048388],[75.894858,22.604886],[75.8948606,22.6049],[75.8948639,22.6049419],[75.8948653,22.604953],[75.8948711,22.605006],[75.894873,22.6050217],[75.8948763,22.6050701],[75.8948769,22.6050826],[75.8948783,22.6051292],[75.8948798,22.605145],[75.8948807,22.605188],[75.8948795,22.6052082],[75.8948786,22.6052236],[75.8948776,22.6052394],[75.8948764,22.6052575],[75.8948758,22.6052836],[75.8948781,22.6053233],[75.8948759,22.6053663],[75.894875,22.605383],[75.8948716,22.6054032],[75.8948718,22.6054144],[75.8948709,22.605426],[75.8948503,22.6054232],[75.8948279,22.6054213],[75.8947971,22.6054194],[75.8947693,22.6054178],[75.8947303,22.6054151],[75.8946788,22.6054121],[75.8946562,22.6054101],[75.8946174,22.6054082],[75.8945977,22.6054073],[75.8945725,22.6054058],[75.8945627,22.6054061],[75.8945307,22.6054071],[75.8945118,22.6054053],[75.8944961,22.6054122],[75.8944732,22.6054169],[75.8944166,22.6054285],[75.8943779,22.6054383],[75.894303,22.6054501],[75.8942541,22.6054578],[75.894222,22.6054608],[75.8941071,22.6054735],[75.8940486,22.6054784],[75.8939956,22.6054866],[75.8939766,22.605534],[75.8939669,22.6055572],[75.8939626,22.605567],[75.8939496,22.6056192],[75.893941,22.6056423],[75.8939401,22.6056541],[75.8939233,22.6057099],[75.8939186,22.6057315],[75.8939159,22.6057402],[75.8939036,22.605795],[75.8938988,22.6058109],[75.8938887,22.6058255],[75.893887,22.6057927],[75.8938858,22.6057793],[75.8938721,22.6056355],[75.8938734,22.6055961],[75.893862,22.6054737],[75.8938595,22.6054389],[75.893851,22.6053138],[75.8938482,22.6052664],[75.8938399,22.6051502],[75.8937641,22.6051442],[75.89353,22.6051386],[75.8933138,22.6051389],[75.8932783,22.6051366],[75.893238,22.6051382],[75.8931352,22.6051502],[75.8930861,22.605157],[75.8929799,22.6051689],[75.8929403,22.6051741],[75.892866,22.6051797],[75.8928183,22.6051842],[75.8927418,22.6051848],[75.8926853,22.6051816],[75.8926849,22.6051603],[75.8926825,22.6051296],[75.8926836,22.6050965],[75.8926847,22.6050609],[75.8926376,22.6050499],[75.8925709,22.6050293]]]}},{"type":"Feature","properties":{"loc_id":5027283,"name":"Umri Kheda","name_hi":"उमरीखेडा","lgd_code":"476258","polygons":953},"geometry":{"type":"Point","coordinates":[75.8905229,22.6070868]}},{"type":"Feature","properties":{"loc_id":5027284,"name":"Asrawad Khurd","name_hi":"असरावद खुर्द","lgd_code":"476261","polygons":1528},"geometry":{"type":"MultiLineString","coordinates":[[[75.8864777,22.6238721],[75.8864824,22.6235982],[75.8865007,22.623325],[75.8865215,22.6230454],[75.8865203,22.6227764],[75.8866649,22.6217289],[75.8867234,22.6213203],[75.8867969,22.6208062],[75.8869166,22.6198899],[75.8869456,22.6197157],[75.8870226,22.6192521],[75.8871368,22.6186914],[75.887186,22.6186955],[75.8873075,22.6187058],[75.8877002,22.6186809],[75.8888463,22.6185947],[75.8890408,22.618507],[75.8895373,22.6180036],[75.8898135,22.6177248],[75.8900657,22.617585],[75.8909837,22.6172525],[75.8911494,22.6171914],[75.891204,22.6171713],[75.8920884,22.6168455],[75.8928189,22.6166238],[75.8930468,22.6165453],[75.89308,22.6165363],[75.8931463,22.6165355],[75.8931836,22.6165401],[75.8933225,22.6165862],[75.8933397,22.6165871],[75.893348,22.6165832],[75.8933619,22.6165749],[75.8933774,22.6165506],[75.8933805,22.616532],[75.8933748,22.6165112],[75.8933375,22.6164297],[75.893337,22.6164163],[75.8933472,22.6163792],[75.8933967,22.6162935],[75.8934405,22.6162291],[75.8934497,22.6162043],[75.8934595,22.6161524],[75.8934468,22.616102],[75.8934326,22.6160598],[75.8934118,22.6160256],[75.8932603,22.6158548],[75.8931467,22.6157298],[75.8931322,22.6157012],[75.8931247,22.6156717],[75.8931243,22.61565],[75.8931411,22.6154915],[75.8931658,22.6152685],[75.8931667,22.6151106],[75.8932808,22.6151253],[75.8935613,22.6151627],[75.8936464,22.6151475],[75.8937049,22.6151164],[75.8937834,22.6150873],[75.8942428,22.6149367],[75.8946041,22.6148411],[75.8951159,22.6147728],[75.8957416,22.6146831],[75.8957678,22.6146725],[75.8957879,22.6146712],[75.8958062,22.6146847],[75.8958504,22.6147293],[75.8958845,22.6148472],[75.8958997,22.6148572],[75.8959116,22.6148641],[75.8959212,22.6148651],[75.8959662,22.6148586],[75.8959811,22.6148599],[75.8960027,22.6148651],[75.8960249,22.6148799],[75.8960428,22.6148836],[75.8960877,22.6148819],[75.8961046,22.6148782],[75.8961283,22.6148679],[75.8961419,22.6148547],[75.8961374,22.6148351],[75.8961104,22.6147801],[75.8961091,22.6147664],[75.896113,22.6147434],[75.8961284,22.614734],[75.8961528,22.61473],[75.8962339,22.6147294],[75.8962513,22.6147287],[75.8962659,22.6147211],[75.8962797,22.6146932],[75.8962951,22.6146266],[75.8962846,22.6145726],[75.8964615,22.6144801],[75.8965386,22.614414],[75.896603,22.6143771],[75.8967061,22.6143312],[75.8967983,22.6143063],[75.8968843,22.6142996],[75.8969879,22.6142993],[75.8970502,22.6143153],[75.8970923,22.6143186],[75.8971062,22.6143184],[75.8971762,22.6142833],[75.8972163,22.6142671],[75.8972508,22.614272],[75.8972777,22.6142855],[75.8973957,22.6143996],[75.897417,22.6144088],[75.8974377,22.6144104],[75.8974651,22.6143981],[75.8974955,22.6143749],[75.8975219,22.6143424],[75.8975632,22.6142866],[75.8975702,22.6142719],[75.897577,22.6142353],[75.8975908,22.6142175],[75.8976067,22.6141935],[75.8976487,22.6141716],[75.8976758,22.6141636],[75.8977912,22.6141617],[75.8979194,22.6141843],[75.8979562,22.614183],[75.897983,22.6141741],[75.8980028,22.6141586],[75.8980327,22.6141249],[75.8980457,22.6141006],[75.8980539,22.6140687],[75.8980694,22.6140061],[75.8980932,22.6139615],[75.8981157,22.6139365],[75.8981281,22.6139312],[75.898173,22.613923],[75.8982539,22.6139379],[75.898326,22.6139575],[75.8983444,22.6139564],[75.8984142,22.6139449],[75.898441,22.6139501],[75.8985219,22.6139858],[75.8985383,22.6139795],[75.8986424,22.613927],[75.8986956,22.6138894],[75.8987468,22.6138279],[75.8988004,22.6137659],[75.8988581,22.6137219],[75.8989151,22.6136974],[75.8989499,22.6136921],[75.8989861,22.6136932],[75.8990179,22.6137056],[75.899145,22.6137762],[75.8991751,22.6137829],[75.8992093,22.6137825],[75.8992375,22.6137772],[75.8992721,22.6137649],[75.8993031,22.6137676],[75.8993546,22.6137811],[75.8993968,22.6137858],[75.8994116,22.6137828],[75.8994337,22.6137719],[75.8994663,22.613723],[75.8994842,22.6136658],[75.8994749,22.6135994],[75.8994549,22.6135361],[75.8994394,22.6134827],[75.899438,22.6134558],[75.8994403,22.6134243],[75.8994493,22.6134],[75.8994991,22.6133438],[75.8995753,22.6132842],[75.8996502,22.613246],[75.8997013,22.6132335],[75.8997571,22.6132352],[75.8998023,22.6132563],[75.8998245,22.6132736],[75.8998577,22.6133385],[75.8998895,22.6133697],[75.8999093,22.6133793],[75.90004,22.6133698],[75.9000531,22.6133771],[75.9000616,22.6133893],[75.9000945,22.613439],[75.9001125,22.6135037],[75.9001213,22.6135063],[75.9001736,22.6134904],[75.900277,22.6134412],[75.9003829,22.6133724],[75.9004184,22.6133366],[75.9004724,22.6132911],[75.9005125,22.6132346],[75.9005501,22.6132038],[75.9005722,22.6131942],[75.9005883,22.6131905],[75.9006101,22.6131905],[75.9006657,22.6132096],[75.9007748,22.6132828],[75.9008191,22.6133128],[75.9008455,22.6133203],[75.900954,22.6133272],[75.9010184,22.6133181],[75.9010907,22.613297],[75.9011974,22.6132619],[75.9012752,22.6132467],[75.9013664,22.6128657],[75.901462,22.612339],[75.9015901,22.6116594],[75.9015829,22.6113678],[75.9015813,22.6108859],[75.9015464,22.6101291],[75.9015296,22.6092843],[75.9015463,22.6092311],[75.9018577,22.6092215],[75.9022614,22.6090743],[75.9024297,22.6089938],[75.902989,22.608698],[75.9035447,22.6084212],[75.9040658,22.6081141],[75.904085,22.6081125],[75.9041636,22.6081222],[75.9046587,22.6082216],[75.9049049,22.6082739],[75.9052177,22.6083729],[75.9053326,22.6084021],[75.9056872,22.6084746],[75.9063039,22.6086121],[75.9065736,22.608659],[75.9071685,22.6087951],[75.9073809,22.6088451],[75.9080781,22.6090144],[75.9084381,22.6090925],[75.9090831,22.6092572],[75.909672,22.6094023],[75.9099181,22.6094665],[75.9099817,22.6094604],[75.9100289,22.6094559],[75.9102901,22.6093803],[75.9104505,22.6093365],[75.9106855,22.6092723],[75.9112749,22.6091143],[75.9116525,22.6090129],[75.9116654,22.6090113],[75.9117519,22.6090007],[75.9120278,22.6089457],[75.9121736,22.6088986],[75.9123393,22.6088591],[75.9125144,22.6088264],[75.9126742,22.6087964],[75.9127695,22.6087771],[75.9130379,22.6086775],[75.9130877,22.6086673],[75.9131184,22.608661],[75.9133024,22.6086582],[75.9137306,22.6086534],[75.9137564,22.6086531],[75.9140678,22.6086462],[75.9145532,22.6085439],[75.9149529,22.6084579],[75.9154979,22.6083391],[75.9164583,22.6077012],[75.9166812,22.6076446],[75.9171183,22.6076492],[75.9173551,22.6076627],[75.9177236,22.607675],[75.9178415,22.6077883],[75.9179449,22.6079636],[75.9183223,22.6086328],[75.9184007,22.6087808],[75.9185181,22.6089884],[75.9185155,22.6091593],[75.9184812,22.6094542],[75.918464,22.6098504],[75.9184425,22.610041],[75.918416,22.6104179],[75.9184033,22.6106505],[75.9184517,22.6111746],[75.9185006,22.6117616],[75.9185017,22.6117742],[75.9185483,22.612383],[75.9185677,22.6125137],[75.9186267,22.6132136],[75.9186343,22.6133282],[75.9186541,22.6135423],[75.9186895,22.6139272],[75.9187101,22.6141197],[75.9187225,22.6142786],[75.9187577,22.6147303],[75.9188196,22.6148633],[75.918853,22.6149352],[75.9189445,22.6150279],[75.9192507,22.6153439],[75.9193433,22.615446],[75.9194914,22.6156093],[75.9195286,22.6156504],[75.9196369,22.6157559],[75.9202343,22.6163969],[75.9203684,22.6165434],[75.9206191,22.6168171],[75.9206402,22.6168401],[75.9206688,22.6168714],[75.920688,22.6168917],[75.9210713,22.6172981],[75.9212476,22.6174964],[75.9219175,22.6182124],[75.922458,22.6187955],[75.9228127,22.6191697],[75.9230412,22.619432],[75.9235419,22.6198874],[75.9240674,22.6203743],[75.9242243,22.6205228],[75.9247339,22.6209902],[75.924835,22.6210799],[75.925165,22.621404],[75.9254441,22.6215578],[75.9255655,22.6215964],[75.9255252,22.6216499],[75.9248395,22.6217705],[75.9244419,22.6218114],[75.9243732,22.6217956],[75.9238698,22.6217254],[75.9234619,22.6216792],[75.9234741,22.6219165],[75.9235117,22.6223624],[75.9235448,22.6225725],[75.9235497,22.622604],[75.9235786,22.6231141],[75.9235965,22.6234082],[75.9235973,22.6234217],[75.9236083,22.6237245],[75.9236252,22.6240281],[75.9236329,22.6242809],[75.9236345,22.624331],[75.9236454,22.6244776],[75.9236528,22.6245781],[75.9236626,22.6246229],[75.9236651,22.6246344],[75.9237012,22.6247865],[75.9237378,22.6249405],[75.9237399,22.6249502],[75.9237742,22.6251055],[75.9238044,22.6252419],[75.9238491,22.6254476],[75.9238692,22.6255402],[75.9238965,22.6256603],[75.9239298,22.6258068],[75.9239384,22.6258447],[75.9239964,22.6260839],[75.9240118,22.6261477],[75.9240142,22.6261616],[75.924064,22.626458],[75.9241101,22.6267628],[75.9241571,22.627066],[75.9242004,22.6273638],[75.9242438,22.6276607],[75.9242873,22.6279655],[75.924326,22.6281623],[75.9243335,22.6282006],[75.924349,22.6282797],[75.9244099,22.6285963],[75.9244732,22.6289009],[75.9245277,22.6292001],[75.9245952,22.6295031],[75.9246081,22.6296087],[75.9245557,22.6296427],[75.9245407,22.6296456],[75.9242289,22.6297045],[75.9241112,22.6297267],[75.9236202,22.6298232],[75.9232117,22.6298983],[75.9230925,22.6299202],[75.9225631,22.6300187],[75.9220432,22.6301203],[75.9217152,22.6301862],[75.9215513,22.6302128],[75.9210689,22.6303052],[75.9205864,22.630396],[75.9200853,22.6305006],[75.9195851,22.6306003],[75.9190864,22.6306953],[75.918592,22.6307886],[75.9184083,22.6308268],[75.9181251,22.6308856],[75.9176568,22.6309182],[75.9173556,22.6309303],[75.9171797,22.6309374],[75.9166872,22.6309583],[75.9164408,22.6309731],[75.9161924,22.630988],[75.9160481,22.6309913],[75.9159549,22.6309964],[75.9156797,22.6310688],[75.9151953,22.6311923],[75.9147009,22.6313293],[75.9142047,22.63146],[75.9139538,22.631525],[75.9138652,22.6315492],[75.913791,22.6315653],[75.9136595,22.63159],[75.9136092,22.6315981],[75.9132135,22.6316555],[75.9127887,22.631706],[75.9125081,22.6317441],[75.9122325,22.6317792],[75.9120091,22.631805],[75.9117239,22.6318011],[75.9111782,22.6318142],[75.9106278,22.6318687],[75.9100799,22.6319037],[75.9095327,22.6319354],[75.9090818,22.6319761],[75.9089686,22.6320237],[75.9086668,22.6321341],[75.9084071,22.6321969],[75.9081836,22.6322339],[75.9081487,22.6322397],[75.9080517,22.6322558],[75.9080386,22.63226],[75.9078987,22.6323047],[75.9075479,22.632425],[75.907441,22.6324616],[75.9073684,22.6324532],[75.9072874,22.6324393],[75.9072079,22.6324256],[75.907102,22.6324336],[75.9070688,22.6324388],[75.9068048,22.63248],[75.9067078,22.6325005],[75.9063137,22.6325497],[75.9058566,22.6325972],[75.9057256,22.632609],[75.905289,22.6326458],[75.9052336,22.6326433],[75.9048493,22.6326889],[75.904731,22.632699],[75.9044009,22.6327718],[75.9039692,22.6328789],[75.9036107,22.6329674],[75.9035258,22.6329886],[75.903503,22.6330039],[75.9031325,22.6331428],[75.9027113,22.6333036],[75.902532,22.6333722],[75.9024771,22.6333974],[75.9024357,22.6334176],[75.9022962,22.6334699],[75.9018653,22.633615],[75.9017283,22.6336665],[75.9016089,22.6337059],[75.9014282,22.6337507],[75.9013192,22.6337758],[75.9011363,22.6338178],[75.9010032,22.6338483],[75.9008843,22.6338703],[75.90058,22.6339538],[75.9002068,22.634031],[75.9001582,22.634041],[75.8997287,22.6341323],[75.8994581,22.6341948],[75.8992958,22.6342189],[75.8992477,22.6342255],[75.8988962,22.634274],[75.8988691,22.6342777],[75.8984846,22.6343451],[75.8984436,22.6343523],[75.8984261,22.6343566],[75.8981341,22.6344283],[75.8980102,22.6344587],[75.8975766,22.634558],[75.8975583,22.6345625],[75.8971441,22.6346659],[75.8970952,22.6346781],[75.8968691,22.6347347],[75.8967125,22.6347738],[75.8962841,22.634877],[75.8958526,22.634992],[75.895415,22.6351008],[75.8953898,22.6351069],[75.8952952,22.6351301],[75.8949765,22.635208],[75.8945346,22.6353153],[75.8940928,22.6354265],[75.8936578,22.6355392],[75.8934024,22.6355988],[75.8933514,22.6356107],[75.8932226,22.6356408],[75.8928809,22.6357279],[75.8926565,22.6357813],[75.8922772,22.6358657],[75.8918367,22.6359595],[75.8913988,22.6360508],[75.8909582,22.6361407],[75.8905194,22.6362344],[75.8903038,22.6362773],[75.8901088,22.6362036],[75.8900838,22.6361491],[75.8900029,22.6359419],[75.8899104,22.6356716],[75.889817,22.6353957],[75.8897237,22.6351238],[75.889632,22.6348502],[75.8895327,22.6345776],[75.8894761,22.6344106],[75.8894403,22.6343049],[75.8893648,22.6340311],[75.8892902,22.6337582],[75.8892199,22.6334852],[75.8891512,22.6332122],[75.8890682,22.6329442],[75.8890122,22.6327286],[75.8889998,22.6326807],[75.8889898,22.6326414],[75.8889855,22.6326245],[75.8889303,22.6324084],[75.8888548,22.6321324],[75.8887904,22.6318562],[75.8887524,22.6315781],[75.8887083,22.6312984],[75.8886636,22.6310275],[75.8886531,22.6309633],[75.8886188,22.6307527],[75.8885739,22.6304715],[75.8885666,22.6304067],[75.8885059,22.630188],[75.8884854,22.63006],[75.8884372,22.6297828],[75.8883889,22.6295033],[75.8883449,22.6292252],[75.8882914,22.6289457],[75.8882397,22.6286654],[75.8882341,22.6286417],[75.8880628,22.6283889],[75.8878723,22.628115],[75.8876844,22.6278473],[75.8874974,22.6275788],[75.8873078,22.6273088],[75.8871142,22.6270476],[75.8869315,22.6267814],[75.8869076,22.626739],[75.8868455,22.6265354],[75.8868368,22.6264765],[75.8868188,22.6263537],[75.8867791,22.6260788],[75.8867612,22.6259569],[75.886753,22.6259],[75.8867385,22.6258023],[75.8866929,22.625525],[75.8866454,22.6252455],[75.8865928,22.6249643],[75.8865592,22.6246949],[75.8865579,22.6246828],[75.886528,22.6244183],[75.8864935,22.6241441],[75.8864777,22.6238721]],[[75.8939273,22.6292947],[75.8940137,22.6292291],[75.8940468,22.6292135],[75.8941316,22.6291593],[75.8941845,22.6291273],[75.8942272,22.6290989],[75.8943805,22.6290164],[75.8944832,22.6289615],[75.8945548,22.6289271],[75.8945898,22.6289141],[75.8946448,22.6288925],[75.8946796,22.6288747],[75.8947232,22.6288462],[75.8948718,22.6287377],[75.8951028,22.6285932],[75.8952378,22.628514],[75.8952927,22.6284863],[75.8953174,22.6284799],[75.8953269,22.6284833],[75.89538,22.6285507],[75.8955254,22.6287021],[75.8956806,22.6288525],[75.8958391,22.6290011],[75.8960023,22.6291496],[75.8960429,22.629184],[75.8960662,22.6292026],[75.8959946,22.6292081],[75.8958193,22.6292071],[75.8957409,22.6292046],[75.8955751,22.6292048],[75.8954492,22.6292049],[75.8953383,22.6292027],[75.8952762,22.6291969],[75.8952192,22.6291915],[75.8950971,22.6291689],[75.8950552,22.6291629],[75.8949926,22.6291597],[75.8948511,22.6291535],[75.8947746,22.6291544],[75.8947173,22.6291572],[75.8946162,22.6291741],[75.8945063,22.6291976],[75.8943711,22.6292258],[75.8942373,22.6292488],[75.8941222,22.6292715],[75.8940453,22.6292776],[75.8939273,22.6292947]],[[75.8970537,22.6186102],[75.8970549,22.6186051],[75.8971896,22.618509],[75.8973767,22.6184338],[75.8974026,22.6184277],[75.8974209,22.6184336],[75.8975467,22.6185301],[75.8975522,22.618539],[75.8975271,22.6187655],[75.8974815,22.6190678],[75.8974415,22.6194146],[75.8974315,22.6195145],[75.8971391,22.6194076],[75.8971351,22.6193935],[75.897114,22.6189826],[75.8970764,22.6186819],[75.8970537,22.6186102]],[[75.900368,22.6281348],[75.9003774,22.6281423],[75.9003802,22.6281683],[75.9003853,22.6282188],[75.9003926,22.6282979],[75.9003998,22.6283665],[75.900526,22.6283252],[75.9005066,22.6282834],[75.900491,22.6282491],[75.9004683,22.6282123],[75.9005153,22.6281908],[75.900561,22.6281706],[75.9005881,22.6281578],[75.900591,22.6281146],[75.9005946,22.6280932],[75.9005953,22.6280465],[75.9005963,22.6280155],[75.9006001,22.6279935],[75.90055,22.6280204],[75.9004738,22.6280648],[75.9003914,22.628115],[75.900368,22.6281348]],[[75.9005282,22.6292438],[75.9005288,22.6291862],[75.9005952,22.629168],[75.9005759,22.6290546],[75.9005758,22.6290236],[75.9006912,22.628995],[75.9007752,22.6289772],[75.9008004,22.6290623],[75.9007969,22.6290955],[75.9007557,22.6291134],[75.9007561,22.6291329],[75.9007643,22.6291878],[75.9007972,22.6293081],[75.9007879,22.6293137],[75.9006596,22.6293402],[75.900566,22.6293542],[75.900549,22.6293436],[75.9005416,22.629297],[75.9005282,22.6292438]]]}},{"type":"Feature","properties":{"loc_id":5027284,"name":"Asrawad Khurd","name_hi":"असरावद खुर्द","lgd_code":"476261","polygons":1528},"geometry":{"type":"Point","coordinates":[75.9057064,22.6229805]}},{"type":"Feature","properties":{"loc_id":5027285,"name":"Mirjapur","name_hi":"मिर्जापुर","lgd_code":"476260","polygons":697},"geometry":{"type":"MultiLineString","coordinates":[[[75.8901336,22.6364274],[75.8902035,22.6367295],[75.8903251,22.6370637],[75.8904111,22.6375358],[75.8904897,22.6380359],[75.8905454,22.638399],[75.8905834,22.6387446],[75.8906282,22.6390749],[75.8906615,22.6394078],[75.8906671,22.6395907],[75.8906748,22.6398469],[75.8906875,22.6403524],[75.8907119,22.6409809],[75.8907279,22.6416278],[75.8907641,22.641733],[75.8908981,22.641878],[75.8910399,22.6418812],[75.8914506,22.6418914],[75.8919864,22.641916],[75.8923163,22.6419207],[75.892691,22.6419567],[75.8931044,22.6419922],[75.8936786,22.6420455],[75.894166,22.6420884],[75.8945239,22.6421264],[75.8948842,22.6421939],[75.895292,22.6422751],[75.8956639,22.642343],[75.8957746,22.642378],[75.8959329,22.6423712],[75.8963375,22.642355],[75.8967558,22.642338],[75.8970213,22.642343],[75.8972641,22.6423483],[75.8976687,22.6423613],[75.8981148,22.6423762],[75.8985882,22.6423937],[75.8989368,22.6424077],[75.8990743,22.6424121],[75.89913,22.6424099],[75.8992178,22.6424041],[75.8992395,22.642394],[75.8992837,22.6423919],[75.8998601,22.6422959],[75.9002396,22.642238],[75.900619,22.6421785],[75.9009099,22.6421364],[75.9012108,22.6420444],[75.9015394,22.6418411],[75.9018087,22.6416565],[75.9018429,22.6416331],[75.9020188,22.6415187],[75.9021537,22.6414364],[75.9023196,22.6413435],[75.9024239,22.6412912],[75.9026454,22.6411802],[75.9028941,22.6410713],[75.9032073,22.6409194],[75.9034835,22.6407843],[75.9036129,22.6407297],[75.9036926,22.6406842],[75.9040444,22.6405046],[75.9042695,22.6404669],[75.9047614,22.640573],[75.90508,22.6406417],[75.9052332,22.6406736],[75.9052379,22.6406745],[75.9052591,22.640679],[75.9052947,22.6406864],[75.9052948,22.6406864],[75.9053057,22.6406887],[75.9055936,22.6407485],[75.9058295,22.6407974],[75.9058645,22.6408046],[75.9063844,22.6409088],[75.9066366,22.6409499],[75.9066843,22.6409532],[75.9068759,22.6409665],[75.9069997,22.6409736],[75.9072037,22.6409852],[75.9075168,22.6409831],[75.9077939,22.6409903],[75.908056,22.6410017],[75.9083326,22.6410269],[75.9086221,22.6410302],[75.9087707,22.6410319],[75.9089782,22.6410328],[75.9091095,22.6410334],[75.9094843,22.6410346],[75.9097192,22.6410365],[75.9100241,22.6411289],[75.9104253,22.6413248],[75.9104619,22.641342],[75.9105834,22.6414103],[75.9107967,22.6415682],[75.9109488,22.6417617],[75.9110693,22.6419102],[75.9112762,22.642013],[75.9116557,22.6421932],[75.9117795,22.6422562],[75.9120407,22.6423212],[75.9123253,22.6423631],[75.9126286,22.6423992],[75.9129872,22.6424458],[75.9131239,22.6424607],[75.9135036,22.6425134],[75.9137999,22.6425523],[75.914174,22.6426002],[75.9145123,22.6426438],[75.9145681,22.6426549],[75.9146947,22.6426691],[75.9149189,22.6426994],[75.915122,22.6427263],[75.9154176,22.6427606],[75.9156895,22.6427934],[75.9159479,22.6428238],[75.9162253,22.6428624],[75.9164803,22.6428909],[75.9166602,22.6429176],[75.9168922,22.6429426],[75.9172201,22.6429842],[75.9175922,22.6430328],[75.9179024,22.6430707],[75.9181875,22.6431098],[75.9185104,22.6431448],[75.9188872,22.6431907],[75.919314,22.6432406],[75.9193782,22.6432235],[75.9196088,22.6431782],[75.9199142,22.6431148],[75.9200558,22.6430861],[75.920319,22.6430299],[75.9206369,22.6429603],[75.9210188,22.6428812],[75.9212881,22.6428259],[75.9215511,22.6427674],[75.9218634,22.6426998],[75.922243,22.6426161],[75.9225304,22.6425538],[75.9228265,22.6424903],[75.9228023,22.6422795],[75.9228174,22.6420148],[75.9229024,22.6415229],[75.9229828,22.641228],[75.9232088,22.6403374],[75.9233265,22.6401126],[75.9238247,22.6393164],[75.9240915,22.638871],[75.9241983,22.6386558],[75.9243525,22.6381523],[75.9244729,22.6377187],[75.924629,22.6371789],[75.9247512,22.6367748],[75.9248713,22.6363306],[75.9248901,22.6362608],[75.9249083,22.63593],[75.9249346,22.6354449],[75.9249548,22.6350839],[75.9249696,22.6347412],[75.9249944,22.634449],[75.9250268,22.6340869],[75.9250481,22.6337722],[75.9250709,22.6333996],[75.9250927,22.6330381],[75.9251026,22.6329628],[75.9251045,22.6329082],[75.9250606,22.6327734],[75.9250157,22.6325745],[75.9249384,22.6322456],[75.9248548,22.6319256],[75.9247531,22.6315165],[75.9247307,22.6314237],[75.9247091,22.6311382],[75.9246802,22.6308043],[75.9246488,22.6304637],[75.9246225,22.6302571],[75.9245858,22.629925],[75.9245694,22.6297409],[75.9245407,22.6294552],[75.9244015,22.6294758],[75.9241467,22.6295228],[75.9237094,22.6296067],[75.9233678,22.6296741],[75.9230452,22.6297416],[75.922682,22.6298104],[75.9223382,22.6298771],[75.9219572,22.6299504],[75.9216431,22.6300135],[75.9212982,22.6300825],[75.9208804,22.6301643],[75.9204153,22.6302598],[75.9202789,22.6302838],[75.9198641,22.6303656],[75.9197362,22.6303931],[75.9196847,22.6304012],[75.9193968,22.6304597],[75.9190362,22.6305247],[75.9186155,22.6306124],[75.9184852,22.6306335],[75.918422,22.6306557],[75.9181863,22.6306719],[75.9178237,22.6306977],[75.9174701,22.6307207],[75.9170921,22.6307416],[75.9167143,22.6307698],[75.9165584,22.6307799],[75.9160069,22.6308115],[75.9157454,22.6308701],[75.9153468,22.6309736],[75.9149523,22.6310825],[75.9145253,22.6311839],[75.9140945,22.6312969],[75.9139184,22.631337],[75.9137518,22.6313734],[75.913676,22.6313826],[75.9136241,22.6313878],[75.9135229,22.6314045],[75.9132825,22.6314369],[75.9131172,22.6314543],[75.912634,22.6315165],[75.9121632,22.6315726],[75.9119671,22.6315931],[75.9117492,22.6315991],[75.9113989,22.6316021],[75.9111205,22.6316062],[75.9109066,22.6316328],[75.9108729,22.631637],[75.9105884,22.6316807],[75.9104429,22.6317],[75.9101304,22.6317075],[75.9098045,22.6317133],[75.909242,22.631729],[75.909081,22.6317374],[75.908895,22.6318144],[75.9087471,22.6318575],[75.9083906,22.6319457],[75.9080582,22.6320268],[75.9078735,22.6320804],[75.9078683,22.6320819],[75.9077721,22.6321119],[75.9076684,22.632155],[75.9075325,22.6322183],[75.9073264,22.6322205],[75.9071352,22.6322111],[75.9070214,22.6322333],[75.9065318,22.6323274],[75.9061987,22.6323671],[75.9060502,22.6323691],[75.9055245,22.6324358],[75.9051566,22.6324834],[75.9046466,22.6325584],[75.9042345,22.6326381],[75.9039112,22.6327068],[75.9035224,22.6327977],[75.9034441,22.6328091],[75.903397,22.6328422],[75.9031363,22.6329343],[75.9027044,22.6331044],[75.9023895,22.6332234],[75.9018873,22.6334455],[75.9015564,22.633601],[75.9014612,22.6336188],[75.9012629,22.633656],[75.9009035,22.6337353],[75.9006193,22.6338091],[75.9003888,22.6338409],[75.9000992,22.633896],[75.899778,22.6339631],[75.8994659,22.6340271],[75.8991558,22.6340978],[75.8987738,22.6341823],[75.8984655,22.6342542],[75.8984097,22.6342683],[75.8978906,22.6344074],[75.8974673,22.6345109],[75.8970162,22.6346236],[75.8965456,22.6347434],[75.8961535,22.6348405],[75.8956386,22.6349726],[75.8953228,22.6350485],[75.8950541,22.635116],[75.8945983,22.6352344],[75.8939129,22.6354064],[75.8936755,22.6354728],[75.8928308,22.6356949],[75.8926374,22.6357363],[75.8916366,22.6359767],[75.8914377,22.636029],[75.8904918,22.6362525],[75.8902096,22.636321],[75.8901336,22.6364274]],[[75.8916725,22.6376577],[75.8917143,22.637922],[75.8922057,22.6378612],[75.8921756,22.6375898],[75.8917973,22.637638],[75.8917967,22.6376342],[75.8916725,22.6376577]],[[75.8989731,22.6393601],[75.8989734,22.6393622],[75.8989981,22.6395076],[75.8991501,22.6394897],[75.8992729,22.6394753],[75.8992561,22.6393275],[75.8991341,22.6393416],[75.8989731,22.6393601]],[[75.9215752,22.6366746],[75.9215753,22.6366745],[75.9215753,22.6366746],[75.9215752,22.6366746]]]}},{"type":"Feature","properties":{"loc_id":5027285,"name":"Mirjapur","name_hi":"मिर्जापुर","lgd_code":"476260","polygons":697},"geometry":{"type":"Point","coordinates":[75.9097224,22.6372746]}}]}